445P/Lemmon-PANSTARRS,e,1.0885,126.5923,213.4607,4.053859,0.1207539,0.41407192,54.5702,11/12.0/2023,2000,g 15.0,4.0
# From MPEC 2022-WQ9
446P/McNaught,e,16.6141,336.3861,344.6920,4.567065,0.1009830,0.64684708,53.6770,11/12.0/2023,2000,g 16.5,4.0
# From MPEC 2022-YB4
447P/Sheppard-Tholen,e,7.4363,302.6454,97.7387,5.635279,0.0736768,0.17880860,33.1324,11/12.0/2023,2000,g 12.0,4.0
# From MPEC 2023-A50
448P/PANSTARRS,e,12.1511,161.7552,218.7412,3.634519,0.1422439,0.41876423,61.3728,11/12.0/2023,2000,g 16.0,4.0
# From MPEC 2022-UE6
449P/Leonard,e,15.4659,242.5407,176.6967,3.600080,0.1442899,0.47982304,156.2161,11/12.0/2023,2000,g 16.0,4.0
# From MPEC 2023-RF3
450P/LONEOS,e,10.5545,124.8177,21.2442,7.973830,0.0437727,0.31157307,309.1370,11/12.0/2023,2000,g  6.5,4.0
# From MPEC 2023-HD1
451P/Christensen,e,26.4796,300.9012,186.7111,6.342449,0.0617047,0.55877482,21.5609,11/12.0/2023,2000,g 15.5,4.0
# From MPEC 2023-J29
452P/Sheppard-Jewitt,e,6.4217,123.6907,37.0398,7.300018,0.0499710,0.42766245,10.0173,11/12.0/2023,2000,g  9.0,4.0
# From MPEC 2023-RF3
453P/WISE-Lemmon,e,27.0682,42.8956,70.8413,5.460831,0.0772353,0.58275190,19.6122,11/12.0/2023,2000,g 14.0,4.0
# From MPEC 2023-CD7
454P/PANSTARRS,e,19.8126,54.5826,20.0579,4.207508,0.1142001,0.36154339,54.1040,11/12.0/2023,2000,g 14.0,4.0
# From MPEC 2022-Y14
455P/PANSTARRS,e,14.1376,146.1848,237.5142,3.153006,0.1760423,0.30494974,45.7278,11/12.0/2023,2000,g 17.0,4.0
# From MPEC 2023-N01
456P/PANSTARRS,e,16.9626,243.1751,233.9898,3.169426,0.1746760,0.11781821,268.4642,11/12.0/2023,2000,g 13.5,4.0
# From MPEC 2023-F99
457P/Lemmon-PANSTARRS,e,5.2253,175.9744,104.4264,2.646022,0.2289886,0.11873699,295.3169,11/12.0/2023,2000,g 15.5,4.0
# From MPEC 2023-HD1
458P/Jahn,e,13.6277,1.5875,104.8140,3.857022,0.1301146,0.31702908,49.1525,11/12.0/2023,2000,g 17.3,4.0
# From MPEC 2023-UR6
459P/Catalina,e,7.1724,256.9920,205.1935,3.239376,0.1690487,0.57765252,44.5607,11/12.0/2023,2000,g 15.5,4.0
# From MPEC 2023-G14
460P/PANSTARRS,e,18.8950,180.5154,351.9600,3.027075,0.1871411,0.66403630,164.4061,11/12.0/2023,2000,g 21.0,4.0
# From MPEC 2023-J95
461P/WISE,e,18.4115,194.3766,174.8211,3.142983,0.1768850,0.57022297,135.8610,11/12.0/2023,2000,g 18.5,4.0
# From MPEC 2023-JA3
462P/LONEOS-PANSTARRS,e,7.0253,322.8085,4.3998,4.881126,0.0913953,0.57829826,42.6798,11/12.0/2023,2000,g 17.0,4.0
# From MPEC 2023-RF3
463P/NEOWISE,e,29.2820,283.2090,216.3616,2.974572,0.1921177,0.82557505,43.6830,11/12.0/2023,2000,g 18.0,4.0
# From MPEC 2023-RF3
464P/PANSTARRS,e,21.6651,309.5838,267.6689,4.687306,0.0971223,0.28054445,24.9643,11/12.0/2023,2000,g 10.5,4.0
# From MPEC 2023-V39
465P/Hill,e,25.8715,218.0115,141.2155,6.038428,0.0664230,0.61422520,12.3656,11/12.0/2023,2000,g 12.5,4.0
# From MPEC 2023-V39
466P/PANSTARRS,e,12.2351,119.8566,196.7372,4.043910,0.1211998,0.46714473,23.3017,11/12.0/2023,2000,g 14.0,4.0
# From MPEC 2023-T65
467P/LINEAR-Grauer,e,2.4788,43.2727,267.8250,5.831955,0.0699814,0.05547251,24.1761,11/12.0/2023,2000,g  9.0,4.0
# From MPEC 2023-V39
468P/SidingSpring,e,50.4454,356.1246,322.5541,7.123624,0.0518385,0.44552365,359.5307,11/12.0/2023,2000,g 11.5,4.0
# From MPEC 2023-P35
469P/PANSTARRS,e,20.1742,178.9643,43.5418,4.339613,0.1090254,0.30742866,277.3768,11/12.0/2023,2000,g 13.5,4.0
# From MPEC 2023-V39
470P/PANSTARRS,e,8.8384,246.1844,152.0548,4.475843,0.1040859,0.39034862,356.2242,11/12.0/2023,2000,g 15.5,4.0
# From MPEC 2023-V39
471P/,e,4.7909,283.3436,94.9588,5.707152,0.0722895,0.62793896,357.2314,11/12.0/2023,2000,g 12.0,4.0
# From MPC107687
1I/`Oumuamua,h,09/09.4886/2017,122.6778,24.5997,241.6845,1.199252,0.255240,2000,23.0,2.0
# From MPEC 2023-L37
2I/Borisov,h,12/08.5548/2019,44.0527,308.1480,209.1251,3.356633,2.006548,2000,11.0,4.0
